STARLINK-3909           
1 52452U 22049B   26178.74771034  .00000449  00000+0  46329-4 0  9996
2 52452  53.1604 294.7624 0001088  91.1471 268.9645 15.08829678228728
STARLINK-3872           
1 52453U 22049C   26178.72932436  .00001514  00000+0  11318-3 0  9993
2 52453  53.1598 294.9732 0001320  92.0051 268.1092 15.08837636228727
STARLINK-3888           
1 52454U 22049D   26178.73300244  .00000500  00000+0  49498-4 0  9996
2 52454  53.1602 294.9563 0001193  85.5759 274.5369 15.08834837228724
STARLINK-3890           
1 52455U 22049E   26178.72660089  .00000562  00000+0  53422-4 0  9992
2 52455  53.1597 294.9847 0001184  94.5596 265.5531 15.08835968228729
STARLINK-3896           
1 52456U 22049F   26178.59043770 -.00000282  00000+0  38830-6 0  9998
2 52456  53.1608 295.5953 0001181  94.0222 266.0905 15.08841445228702
STARLINK-3899           
1 52457U 22049G   26178.71828378  .00000141  00000+0  26974-4 0  9995
2 52457  53.1606 295.0109 0001157  91.7185 268.3940 15.08836758228721
STARLINK-3898           
1 52458U 22049H   26178.71556045  .00000573  00000+0  54047-4 0  9996
2 52458  53.1599 295.0328 0001049  86.2927 273.8184 15.08848311228728
STARLINK-3856           
1 52459U 22049J   26178.70080366  .00000680  00000+0  60839-4 0  9999
2 52459  53.1591 285.1014 0001168  92.6185 267.4940 15.08832367228859
STARLINK-3900           
1 52461U 22049L   26178.96300703  .00000722  00000+0  63475-4 0  9996
2 52461  53.1586 273.9209 0001007  91.1713 268.9394 15.08825893229036
STARLINK-3903           
1 52462U 22049M   26178.56191111  .00000794  00000+0  67980-4 0  9998
2 52462  53.1590 285.7348 0000761  67.9223 292.1849 15.08836068228837
STARLINK-3885           
1 52463U 22049N   26178.95932725  .00000562  00000+0  53425-4 0  9998
2 52463  53.1590 273.9387 0001004  92.7894 267.3213 15.08827095229033
STARLINK-3904           
1 52464U 22049P   26178.56466504 -.00002159  00000+0 -11765-3 0  9999
2 52464  53.1602 285.7143 0001012  84.6513 275.4594 15.08816957228830
STARLINK-3863           
1 52465U 22049Q   26178.95564507 -.00000326  00000+0 -24111-5 0  9990
2 52465  53.1595 273.9542 0001093  92.9614 267.1502 15.08833429229030
STARLINK-3873           
1 52467U 22049S   26178.68977230  .00000390  00000+0  42599-4 0  9991
2 52467  53.1609 285.1500 0000960  79.4395 280.6704 15.08827006228852
STARLINK-3864           
1 52468U 22049T   26178.67504854  .00000754  00000+0  65484-4 0  9991
2 52468  53.1600 285.2164 0001144  84.4069 275.7053 15.08831480228853
STARLINK-3828           
1 52469U 22049U   26178.68241587  .00000959  00000+0  78323-4 0  9997
2 52469  53.1605 285.1900 0000894  78.4249 281.6842 15.08834448228859
STARLINK-3859           
1 52470U 22049V   26178.60144937  .00000721  00000+0  63398-4 0  9995
2 52470  53.1592 285.5443 0001111  82.9432 277.1686 15.08831351228844
STARLINK-3862           
1 52471U 22049W   26178.91668981  .01262108  00000+0  43718-1 0  9991
2 52471  53.1593 283.4408 0001517 106.5829 103.0183 15.26431233  5642
STARLINK-3881           
1 52472U 22049X   26178.66400890  .00000265  00000+0  34775-4 0  9996
2 52472  53.1587 285.2635 0001174  83.3937 276.7188 15.08831202228852
STARLINK-3879           
1 52473U 22049Y   26178.67136801  .00000396  00000+0  42960-4 0  9996
2 52473  53.1591 285.2312 0001083  70.5578 289.5530 15.08832741228850
STARLINK-3882           
1 52475U 22049AA  26178.55363638  .00001013  00000+0  81738-4 0  9998
2 52475  53.1604 285.9840 0000945  86.9391 273.1708 15.08828403228834
STARLINK-3835           
1 52476U 22049AB  26178.57023216 -.00000079  00000+0  13141-4 0  9991
2 52476  53.1587 275.9269 0001030  86.6196 273.4913 15.08834457230217
STARLINK-3860           
1 52477U 22049AC  26178.55452507 -.00000436  00000+0 -92783-5 0  9997
2 52477  53.1595 275.7567 0001145  88.6615 271.4508 15.08832431230219
STARLINK-3825           
1 52478U 22049AD  26178.59040390 -.00000119  00000+0  10598-4 0  9995
2 52478  53.1592 285.5961 0001117  93.1869 266.9250 15.08835302230083
STARLINK-3878           
1 52479U 22049AE  26178.53980549  .00000411  00000+0  43892-4 0  9996
2 52479  53.1594 275.8249 0001073  87.7858 272.3256 15.08834641230212
STARLINK-3839           
1 52480U 22049AF  26178.58672619  .00002113  00000+0  15084-3 0  9991
2 52480  53.1607 285.6126 0000980  90.9463 269.1641 15.08829517228840
STARLINK-3813           
1 52482U 22049AH  26178.53243592  .00000863  00000+0  72273-4 0  9996
2 52482  53.1593 275.8582 0001043  84.9704 275.1406 15.08843475228974
STARLINK-3875           
1 52483U 22049AJ  26178.54348286  .00000572  00000+0  54007-4 0  9996
2 52483  53.1597 275.8063 0001200  92.2038 267.9091 15.08835627230219
STARLINK-3887           
1 52484U 22049AK  26178.71552264  .00001125  00000+0  88788-4 0  9997
2 52484  53.1602 285.0321 0001264  96.9885 263.1250 15.08831165228864
STARLINK-3913           
1 52485U 22049AL  26178.53612588  .00000286  00000+0  36055-4 0  9991
2 52485  53.1599 275.8415 0001171  84.2788 275.8337 15.08835504228979
