OBJECT_NAME,OBJECT_ID,EPOCH,MEAN_MOTION,ECCENTRICITY,INCLINATION,RA_OF_ASC_NODE,ARG_OF_PERICENTER,MEAN_ANOMALY,EPHEMERIS_TYPE,CLASSIFICATION_TYPE,NORAD_CAT_ID,ELEMENT_SET_NO,REV_AT_EPOCH,BSTAR,MEAN_MOTION_DOT,MEAN_MOTION_DDOT
STARLINK-3909,2022-049B,2026-06-27T17:56:42.173376,15.08829678,.00010883,53.1604,294.7624,91.1471,268.9645,0,U,52452,999,22872,.46329424E-4,.449E-5,0
STARLINK-3872,2022-049C,2026-06-27T17:30:13.624704,15.08837636,.00013207,53.1598,294.9732,92.0051,268.1092,0,U,52453,999,22872,.11317676E-3,.1514E-4,0
STARLINK-3888,2022-049D,2026-06-27T17:35:31.410816,15.08834837,.00011935,53.1602,294.9563,85.5759,274.5369,0,U,52454,999,22872,.49498111E-4,.5E-5,0
STARLINK-3890,2022-049E,2026-06-27T17:26:18.316896,15.08835968,.00011845,53.1597,294.9847,94.5596,265.5531,0,U,52455,999,22872,.53422202E-4,.562E-5,0
STARLINK-3896,2022-049F,2026-06-27T14:10:13.817280,15.08841445,.00011812,53.1608,295.5953,94.0222,266.0905,0,U,52456,999,22870,.388298E-6,-.282E-5,0
STARLINK-3899,2022-049G,2026-06-27T17:14:19.718592,15.08836758,.00011577,53.1606,295.0109,91.7185,268.3940,0,U,52457,999,22872,.269738E-4,.141E-5,0
STARLINK-3898,2022-049H,2026-06-27T17:10:24.422880,15.08848311,.00010498,53.1599,295.0328,86.2927,273.8184,0,U,52458,999,22872,.54047036E-4,.573E-5,0
STARLINK-3856,2022-049J,2026-06-27T16:49:09.436224,15.08832367,.00011686,53.1591,285.1014,92.6185,267.4940,0,U,52459,999,22885,.60838605E-4,.68E-5,0
STARLINK-3900,2022-049L,2026-06-27T23:06:43.807392,15.08825893,.00010076,53.1586,273.9209,91.1713,268.9394,0,U,52461,999,22903,.63474722E-4,.722E-5,0
STARLINK-3903,2022-049M,2026-06-27T13:29:09.119904,15.08836068,.00007612,53.1590,285.7348,67.9223,292.1849,0,U,52462,999,22883,.67980134E-4,.794E-5,0
STARLINK-3885,2022-049N,2026-06-27T23:01:25.874400,15.08827095,.00010045,53.1590,273.9387,92.7894,267.3213,0,U,52463,999,22903,.5342549E-4,.562E-5,0
STARLINK-3904,2022-049P,2026-06-27T13:33:07.059456,15.08816957,.00010122,53.1602,285.7143,84.6513,275.4594,0,U,52464,999,22883,-.11765195E-3,-.2159E-4,0
STARLINK-3863,2022-049Q,2026-06-27T22:56:07.734048,15.08833429,.00010931,53.1595,273.9542,92.9614,267.1502,0,U,52465,999,22903,-.2411099E-5,-.326E-5,0
STARLINK-3873,2022-049S,2026-06-27T16:33:16.326720,15.08827006,.00009606,53.1609,285.1500,79.4395,280.6704,0,U,52467,999,22885,.42598595E-4,.39E-5,0
STARLINK-3864,2022-049T,2026-06-27T16:12:04.193856,15.08831480,.00011442,53.1600,285.2164,84.4069,275.7053,0,U,52468,999,22885,.65483899E-4,.754E-5,0
STARLINK-3828,2022-049U,2026-06-27T16:22:40.731168,15.08834448,.00008942,53.1605,285.1900,78.4249,281.6842,0,U,52469,999,22885,.7832256E-4,.959E-5,0
STARLINK-3859,2022-049V,2026-06-27T14:26:05.225568,15.08831351,.00011112,53.1592,285.5443,82.9432,277.1686,0,U,52470,999,22884,.63397835E-4,.721E-5,0
STARLINK-3862,2022-049W,2026-06-27T22:00:01.999584,15.26431233,.0001517,53.1593,283.4408,106.5829,103.0183,0,U,52471,999,564,.43717809E-1,.1262108E-1,0
STARLINK-3881,2022-049X,2026-06-27T15:56:10.368960,15.08831202,.0001174,53.1587,285.2635,83.3937,276.7188,0,U,52472,999,22885,.34774967E-4,.265E-5,0
STARLINK-3879,2022-049Y,2026-06-27T16:06:46.196064,15.08832741,.00010836,53.1591,285.2312,70.5578,289.5530,0,U,52473,999,22885,.42960143E-4,.396E-5,0
STARLINK-3882,2022-049AA,2026-06-27T13:17:14.183232,15.08828403,.00009453,53.1604,285.9840,86.9391,273.1708,0,U,52475,999,22883,.81738086E-4,.1013E-4,0
STARLINK-3835,2022-049AB,2026-06-27T13:41:08.058624,15.08834457,.00010308,53.1587,275.9269,86.6196,273.4913,0,U,52476,999,23021,.13140697E-4,-.79E-6,0
STARLINK-3860,2022-049AC,2026-06-27T13:18:30.966048,15.08832431,.00011454,53.1595,275.7567,88.6615,271.4508,0,U,52477,999,23021,-.9278292E-5,-.436E-5,0
STARLINK-3825,2022-049AD,2026-06-27T14:10:10.896960,15.08835302,.00011179,53.1592,285.5961,93.1869,266.9250,0,U,52478,999,23008,.1059776E-4,-.119E-5,0
STARLINK-3878,2022-049AE,2026-06-27T12:57:19.194336,15.08834641,.00010731,53.1594,275.8249,87.7858,272.3256,0,U,52479,999,23021,.43892396E-4,.411E-5,0
STARLINK-3839,2022-049AF,2026-06-27T14:04:53.142816,15.08829517,.00009805,53.1607,285.6126,90.9463,269.1641,0,U,52480,999,22884,.15083865E-3,.2113E-4,0
STARLINK-3813,2022-049AH,2026-06-27T12:46:42.463488,15.08843475,.00010433,53.1593,275.8582,84.9704,275.1406,0,U,52482,999,22897,.7227348E-4,.863E-5,0
STARLINK-3875,2022-049AJ,2026-06-27T13:02:36.919104,15.08835627,.00012004,53.1597,275.8063,92.2038,267.9091,0,U,52483,999,23021,.54006858E-4,.572E-5,0
STARLINK-3887,2022-049AK,2026-06-27T17:10:21.156096,15.08831165,.00012642,53.1602,285.0321,96.9885,263.1250,0,U,52484,999,22886,.88787937E-4,.1125E-4,0
STARLINK-3913,2022-049AL,2026-06-27T12:52:01.276032,15.08835504,.00011719,53.1599,275.8415,84.2788,275.8337,0,U,52485,999,22897,.36055355E-4,.286E-5,0
